IONOSFERA-M 4           
1 64877U 25155B   26178.48700718  .00000049  00000+0  42206-4 0  9999
2 64877  98.6027 140.0502 0001404 115.5743 244.5580 14.21490495 47865
MICROCARB               
1 64899U 25156A   26178.47910236  .00000509  00000+0  87913-4 0  9996
2 64899  97.9921 255.4394 0015482 233.1553 126.8236 14.72533516 49489
CO3D 3                  
1 64900U 25156B   26178.39016400  .00004626  00000+0  21663-3 0  9993
2 64900  97.4335 256.9362 0001790 118.2986 241.8430 15.20207103 51084
CO3D 4                  
1 64901U 25156C   26178.52196039  .00004321  00000+0  20257-3 0  9996
2 64901  97.4337 257.0662 0000548 183.9547 176.1684 15.20208949 51107
CO3D 2                  
1 64902U 25156D   26178.22532270  .00004916  00000+0  22998-3 0  9999
2 64902  97.4335 256.6725 0001514 100.4372 259.7034 15.20212679 51051
CO3D 1                  
1 64903U 25156E   26178.48876618  .00004645  00000+0  21751-3 0  9990
2 64903  97.4335 256.9323 0001373 108.3091 251.8293 15.20208417 51096
PRSC-S1                 
1 65055U 25164A   26178.53974451  .00003506  00000+0  24468-3 0  9991
2 65055  41.1294 229.5038 0005147  59.9330 300.1994 15.06532833 49992
SENTINEL-6B             
1 66514U 25264A   26178.23570304 -.00000074  00000+0 -56782-4 0  9993
2 66514  66.0409 114.3080 0007940 268.9519  91.0586 12.80929981 28453
CAS500-3                
1 66655U 25274F   26178.36708374  .00001285  00000+0  14464-3 0  9997
2 66655  97.7444 106.1866 0006955  84.4522 275.7488 14.88344343 31662
CSG-3                   
1 67304U 26001A   26178.52813698  .00000321  00000+0  46880-4 0  9990
2 67304  97.8888   1.9802 0001474  96.4303 263.7078 14.82160547 25997
PRSC-E03                
1 68835U 26092A   26178.52705194  .00003005  00000+0  20552-3 0  9990
2 68835  38.0023  28.7067 0002697 110.9031 249.2019 15.06721368  9518
CAS500-2                
1 69013U 26100AK  26178.28595332  .00006483  00000+0  29761-3 0  9997
2 69013  97.3900  75.9585 0009540   2.2283 357.8993 15.20705129  8344
