OBJECT_NAME,OBJECT_ID,EPOCH,MEAN_MOTION,ECCENTRICITY,INCLINATION,RA_OF_ASC_NODE,ARG_OF_PERICENTER,MEAN_ANOMALY,EPHEMERIS_TYPE,CLASSIFICATION_TYPE,NORAD_CAT_ID,ELEMENT_SET_NO,REV_AT_EPOCH,BSTAR,MEAN_MOTION_DOT,MEAN_MOTION_DDOT
IONOSFERA-M 4,2025-155B,2026-06-27T11:41:17.420352,14.21490495,.0001404,98.6027,140.0502,115.5743,244.5580,0,U,64877,999,4786,.42206E-4,.49E-6,0
MICROCARB,2025-156A,2026-06-27T11:29:54.443904,14.72533516,.0015482,97.9921,255.4394,233.1553,126.8236,0,U,64899,999,4948,.87913E-4,.509E-5,0
CO3D 3,2025-156B,2026-06-27T09:21:50.169600,15.20207103,.000179,97.4335,256.9362,118.2986,241.8430,0,U,64900,999,5108,.21663E-3,.4626E-4,0
CO3D 4,2025-156C,2026-06-27T12:31:37.377696,15.20208949,.0000548,97.4337,257.0662,183.9547,176.1684,0,U,64901,999,5110,.20257E-3,.4321E-4,0
CO3D 2,2025-156D,2026-06-27T05:24:27.881280,15.20212679,.0001514,97.4335,256.6725,100.4372,259.7034,0,U,64902,999,5105,.22998E-3,.4916E-4,0
CO3D 1,2025-156E,2026-06-27T11:43:49.397952,15.20208417,.0001373,97.4335,256.9323,108.3091,251.8293,0,U,64903,999,5109,.21751E-3,.4645E-4,0
PRSC-S1,2025-164A,2026-06-27T12:57:13.925664,15.06532833,.0005147,41.1294,229.5038,59.9330,300.1994,0,U,65055,999,4999,.24468E-3,.3506E-4,0
SENTINEL-6B,2025-264A,2026-06-27T05:39:24.742656,12.80929981,.000794,66.0409,114.3080,268.9519,91.0586,0,U,66514,999,2845,-.56782E-4,-.74E-6,0
CAS500-3,2025-274F,2026-06-27T08:48:36.035136,14.88344343,.0006955,97.7444,106.1866,84.4522,275.7488,0,U,66655,999,3166,.14464E-3,.1285E-4,0
CSG-3,2026-001A,2026-06-27T12:40:31.035072,14.82160547,.0001474,97.8888,1.9802,96.4303,263.7078,0,U,67304,999,2599,.4688E-4,.321E-5,0
PRSC-E03,2026-092A,2026-06-27T12:38:57.287616,15.06721368,.0002697,38.0023,28.7067,110.9031,249.2019,0,U,68835,999,951,.20552E-3,.3005E-4,0
CAS500-2,2026-100AK,2026-06-27T06:51:46.366848,15.20705129,.000954,97.3900,75.9585,2.2283,357.8993,0,U,69013,999,834,.29761E-3,.6483E-4,0
